[{"OBJECT_NAME":"OBJECT N","OBJECT_ID":"2024-205N","EPOCH":"2026-03-09T22:36:13.267872","MEAN_MOTION":15.33862123,"ECCENTRICITY":0.00094432,"INCLINATION":97.4211,"RA_OF_ASC_NODE":148.9295,"ARG_OF_PERICENTER":39.7652,"MEAN_ANOMALY":320.4281,"EPHEMERIS_TYPE":0,"CLASSIFICATION_TYPE":"U","NORAD_CAT_ID":61906,"ELEMENT_SET_NO":999,"REV_AT_EPOCH":7364,"BSTAR":0.00078005624,"MEAN_MOTION_DOT":0.00025559,"MEAN_MOTION_DDOT":0},{"OBJECT_NAME":"STARLINK-35430","OBJECT_ID":"2025-232R","EPOCH":"2026-03-09T22:22:58.830240","MEAN_MOTION":15.30205842,"ECCENTRICITY":0.00016231,"INCLINATION":53.1586,"RA_OF_ASC_NODE":102.7167,"ARG_OF_PERICENTER":87.7013,"MEAN_ANOMALY":272.4173,"EPHEMERIS_TYPE":0,"CLASSIFICATION_TYPE":"U","NORAD_CAT_ID":66020,"ELEMENT_SET_NO":999,"REV_AT_EPOCH":2345,"BSTAR":0.00073811173,"MEAN_MOTION_DOT":0.00021569,"MEAN_MOTION_DDOT":0}]
